STARLINK-31004          
1 58528U 23191W   24203.11864346  .00009608  00000+0  72496-3 0  9991
2 58528  43.0010 107.3972 0001241 267.1324  92.9376 15.02554513 35702
STARLINK-30988          
1 58529U 23191X   24203.11531389  .00000652  00000+0  63322-4 0  9999
2 58529  43.0026 107.3736 0001151 271.5438  88.5273 15.02536939 35702
STARLINK-31009          
1 58530U 23191Y   24203.11198649  .00001079  00000+0  94908-4 0  9997
2 58530  43.0024 107.3499 0001074 275.1352  84.9368 15.02540433 35728
STARLINK-31012          
1 58531U 23192A   24203.59440389  .00030721  00000+0  11164-2 0  9999
2 58531  53.1595 312.7453 0001797  87.4163 272.7043 15.28042941 34705
STARLINK-31035          
1 58532U 23192B   24203.56178064 -.00001201  00000+0 -30659-4 0  9990
2 58532  53.1625 311.0944 0001836  80.7483 279.3724 15.28051102 34722
STARLINK-31036          
1 58533U 23192C   24203.59932034  .00004567  00000+0  17739-3 0  9998
2 58533  53.1592 312.0818 0001095  93.7334 266.3791 15.28031916 34713
STARLINK-30936          
1 58534U 23192D   24203.57100886 -.00002385  00000+0 -73466-4 0  9997
2 58534  53.1616 312.5943 0001996 124.7104 235.4084 15.28017354 34706
STARLINK-31032          
1 58535U 23192E   24203.58972606  .00027004  00000+0  98357-3 0  9994
2 58535  53.1601 312.7145 0001631 115.3463 244.7705 15.28035405 34707
STARLINK-31037          
1 58536U 23192F   24203.52905206 -.00002624  00000+0 -82112-4 0  9997
2 58536  53.1576 310.9373 0001090  84.6977 275.4148 15.28021699 34723
STARLINK-31041          
1 58537U 23192G   24203.58036723 -.00001262  00000+0 -32900-4 0  9990
2 58537  53.1609 312.6542 0001603  85.4786 274.6397 15.28018027 34701
STARLINK-31014          
1 58538U 23192H   24203.57134427  .00004163  00000+0  16284-3 0  9997
2 58538  53.1622 312.6004 0001598 108.9529 251.1645 15.28028564 34702
STARLINK-31055          
1 58539U 23192J   24203.56668594  .00021160  00000+0  77500-3 0  9998
2 58539  53.1626 312.5691 0001970  67.7855 292.3354 15.27995174 34709
STARLINK-31019          
1 58540U 23192K   24203.57568427  .00000121  00000+0  17039-4 0  9991
2 58540  53.1610 312.6280 0001552  96.4167 263.7010 15.28022762 34706
STARLINK-31045          
1 58541U 23192L   24203.57361521  .00002008  00000+0  15965-3 0  9999
2 58541  53.1625 327.7684 0001509 107.3923 252.7232 15.04916529 34499
STARLINK-31030          
1 58542U 23192M   24203.56633777  .00003336  00000+0  13309-3 0  9999
2 58542  53.1635 312.5680 0002068 108.3629 251.7596 15.28009580 34706
STARLINK-31049          
1 58543U 23192N   24203.62705319  .00024668  00000+0  89955-3 0  9990
2 58543  53.1609 312.2341 0000952  80.0325 280.0782 15.28046882 34717
STARLINK-31048          
1 58544U 23192P   24203.55711812 -.00001107  00000+0 -27299-4 0  9997
2 58544  53.1603 311.0533 0001787  85.4283 274.6921 15.28018467 34724
STARLINK-31057          
1 58545U 23192Q   24203.55697618  .00001346  00000+0  61221-4 0  9991
2 58545  53.1615 312.5063 0001269  86.6055 273.5090 15.28031713 34709
STARLINK-31050          
1 58546U 23192R   24203.55230493 -.00004304  00000+0 -14290-3 0  9998
2 58546  53.1609 312.4768 0001628 105.2649 254.8530 15.28000026 34704
STARLINK-31063          
1 58547U 23192S   24203.57506368 -.00002244  00000+0 -68356-4 0  9992
2 58547  53.1616 310.4425 0001613 102.5586 257.5594 15.28019280 34730
STARLINK-31016          
1 58548U 23192T   24203.54776018 -.00003765  00000+0 -12334-3 0  9994
2 58548  53.1607 310.9911 0001336 100.8415 259.2735 15.28013540 34728
STARLINK-31053          
1 58549U 23192U   24203.54761511 -.00005877  00000+0 -19974-3 0  9990
2 58549  53.1606 312.4472 0001745  72.8353 287.2838 15.28009449 34706
STARLINK-31056          
1 58550U 23192V   24203.58334491 -.00046900  00000+0 -15810-2 0  9995
2 58550  53.1584 311.4297 0001238  84.8086 188.8304 15.30206526  5867
STARLINK-30999          
1 58551U 23192W   24203.54568664  .00000215  00000+0  20444-4 0  9991
2 58551  53.1617 303.0892 0001541  87.2458 272.8718 15.28020631 34830
STARLINK-31046          
1 58552U 23192X   24203.58334491 -.00010284  00000+0 -29557-3 0  9997
2 58552  53.1591 312.0792 0001407  77.6734 223.7433 15.34197075  5877
STARLINK-31044          
1 58589U 23200A   24203.21805847  .00000358  00000+0  41609-4 0  9997
2 58589  43.0020 170.9401 0001204 269.8887  90.1817 15.02533995 33872
STARLINK-31062          
1 58590U 23200B   24203.10322173  .00000495  00000+0  51688-4 0  9993
2 58590  43.0030 173.5204 0001221 265.6733  94.3969 15.02533646 33831
STARLINK-31043          
1 58591U 23200C   24203.40897236  .00001244  00000+0  10717-3 0  9994
2 58591  43.0035 171.5201 0001255 266.1373  93.9326 15.02538337 33884
STARLINK-31096          
1 58592U 23200D   24203.33028895  .00000152  00000+0  26299-4 0  9994
2 58592  43.0029 171.7920 0001310 272.7851  87.2841 15.02533693 33871
STARLINK-31094          
1 58593U 23200E   24203.34114095  .00000980  00000+0  87612-4 0  9999
2 58593  43.0024 171.0148 0001161 272.0752  87.9957 15.02539710 33881
STARLINK-31075          
1 58594U 23200F   24203.33780807  .00001252  00000+0  10772-3 0  9994
2 58594  43.0018 170.9905 0001009 271.9986  88.0741 15.02541126 33889
STARLINK-30857          
1 58595U 23200G   24203.33115411  .00000191  00000+0  29190-4 0  9994
2 58595  43.0019 170.9410 0001186 264.1240  95.9467 15.02535953 33888
STARLINK-31059          
1 58596U 23200H   24203.24032462  .00001514  00000+0  67682-4 0  9997
2 58596  43.0018 136.9601 0001231 261.8359  98.2353 15.25915839 34272
STARLINK-31087          
1 58597U 23200J   24203.32448943  .00000502  00000+0  52254-4 0  9997
2 58597  43.0016 170.8906 0001223 273.2078  86.8624 15.02542307 33771
STARLINK-31079          
1 58598U 23200K   24203.25468220  .00001269  00000+0  10899-3 0  9999
2 58598  43.0019 171.2258 0001287 263.8825  96.1871 15.02535209 33877
STARLINK-31072          
1 58599U 23200L   24203.13992381  .00011047  00000+0  43065-3 0  9993
2 58599  43.0040 143.1427 0001226 271.6022  88.4688 15.25978226 34198
STARLINK-31052          
1 58600U 23200M   24203.25135776  .00000362  00000+0  41882-4 0  9990
2 58600  43.0025 171.2008 0001229 268.6261  91.4440 15.02532486 33878
STARLINK-31074          
1 58601U 23200N   24203.31450715 -.00001694  00000+0 -11042-3 0  9996
2 58601  43.0022 170.8160 0001280 273.6772  86.3923 15.02524752 33887
STARLINK-31071          
1 58602U 23200P   24202.99539718  .00001357  00000+0  61725-4 0  9999
2 58602  43.0007 133.3379 0001269 284.5997  75.4714 15.25906469 34291
STARLINK-31080          
1 58603U 23200Q   24203.31117590  .00000945  00000+0  85009-4 0  9990
2 58603  43.0013 170.7909 0001121 266.6313  93.4401 15.02533281 33692
STARLINK-31088          
1 58604U 23200R   24203.17488869  .00000617  00000+0  60704-4 0  9996
2 58604  43.0028 171.4761 0001062 266.2779  93.7942 15.02536822 33865
STARLINK-31038          
1 58605U 23200S   24203.30118551  .00001257  00000+0  10808-3 0  9990
2 58605  43.0021 170.7154 0001167 266.0774  93.9935 15.02534257 33882
STARLINK-31082          
1 58606U 23200T   24203.10509967  .00008112  00000+0  61471-3 0  9993
2 58606  42.9996 171.8246 0001471 255.6721 104.3958 15.02544623 33857
STARLINK-31069          
1 58607U 23200U   24203.29785697  .00003323  00000+0  26087-3 0  9993
2 58607  43.0017 170.6925 0001221 266.7256  93.3447 15.02546098 33885
STARLINK-31067          
1 58608U 23200V   24203.29452359  .00001143  00000+0  99685-4 0  9993
2 58608  43.0013 170.6664 0001005 279.7218  80.3511 15.02538999 33883
STARLINK-31085          
1 58609U 23200W   24203.29119699 -.00000120  00000+0  61870-5 0  9992
2 58609  43.0023 170.6398 0001218 265.1570  94.9133 15.02533796 33886
STARLINK-31089          
1 58610U 23200X   24203.34779831  .00000758  00000+0  71150-4 0  9997
2 58610  43.0030 171.0035 0000984 271.4596  88.6134 15.02531025 33880
STARLINK-31061          
1 58611U 23200Y   24203.35434480  .00000374  00000+0  42731-4 0  9994
2 58611  43.0041 170.2542 0001250 263.8493  96.2207 15.02535611 33897
STARLINK-31054          
1 58619U 23203B   24203.36789735  .00000985  00000+0  47485-4 0  9991
2 58619  43.0019 192.0663 0000814 275.1570  84.9188 15.25917315 32399
STARLINK-31118          
1 58620U 23203C   24203.19881989 -.00000943  00000+0 -15313-4 0  9999
2 58620  42.9990 185.6129 0001304 263.4909  96.5799 15.40690418 32456
STARLINK-31134          
1 58621U 23203D   24203.22566928  .00002403  00000+0  10166-3 0  9998
2 58621  42.9993 192.7052 0001283 260.5701  99.5005 15.25913285 32375
STARLINK-31133          
1 58622U 23203E   24203.36337004  .00000752  00000+0  38594-4 0  9996
2 58622  43.0033 192.0257 0001356 252.5176 107.5527 15.25919268 32399
STARLINK-31068          
1 58623U 23203F   24203.16473701  .00000727  00000+0  37629-4 0  9990
2 58623  43.0022 193.1123 0001110 267.1155  92.9569 15.25915024 33535
STARLINK-31129          
1 58624U 23203G   24203.35884720  .00001574  00000+0  69989-4 0  9994
2 58624  43.0021 191.9867 0001099 266.7700  93.3025 15.25918986 32398
STARLINK-30774          
1 58625U 23203H   24203.35206208 -.00000292  00000+0 -13374-5 0  9990
2 58625  43.0008 191.9231 0001171 276.2948  83.7769 15.25914628 32397
STARLINK-31086          
1 58626U 23203J   24203.32931253 -.00002687  00000+0 -92923-4 0  9999
2 58626  43.0024 190.9020 0001034 277.7968  82.2765 15.25914819 32401
STARLINK-31065          
1 58627U 23203K   24203.46461256  .00000430  00000+0  26297-4 0  9999
2 58627  43.0042 189.3279 0001292 276.8439  83.2265 15.25912447 32433
STARLINK-31092          
1 58628U 23203L   24203.34981568 -.00011933  00000+0 -44740-3 0  9994
2 58628  43.0015 191.9052 0001289 270.8160  89.2543 15.25885708 32392
STARLINK-31091          
1 58629U 23203M   24203.27982549 -.00000095  00000+0  61852-5 0  9998
2 58629  43.0028 192.2394 0000810 265.8397  94.2362 15.25904630 32385
